CHINASAT 9B             
1 49125U 21080A   26082.81149041 -.00000317  00000+0  00000+0 0  9998
2 49125   0.0346  93.1793 0002333 234.7762 246.8822  1.00270640 16795
